C/2020 H7 (Lemmon),e,135.9235,323.5194,82.6780,1405,0.0000187,0.99685380,0.0000,06/02.9510/2020,2000,g 11.0,4.0
# From MPEC 2021-N06
C/2020 H8 (PANSTARRS),e,99.6489,68.4084,128.9400,594.1406,0.0000681,0.99213062,0.0000,06/04.4619/2020,2000,g 10.5,4.0
# From MPEC 2020-L06
A/2020 H9,e,137.8812,213.1368,312.9130,560.8606,0.0000742,0.99540086,0.0000,12/21.4376/2019,2000,g 18.0,2.0
# From MPEC 2021-S45
C/2020 J1 (SONEAR),h,04/18.6041/2021,142.2956,226.5823,341.7553,1.000395,3.355189,2000,8.5,3.2
# From MPEC 2021-S45
C/2020 K1 (PANSTARRS),e,89.6563,94.3634,213.9688,10212,0.0000010,0.99969898,0.0000,05/09.1080/2023,2000,g  5.5,4.0
# From MPEC 2021-N06
C/2020 K2 (PANSTARRS),h,08/05.6358/2020,91.0380,288.3500,67.3172,1.002942,8.878759,2000,10.8,4.0
# From MPEC 2020-KF9
C/2020 K3 (Leonard),p,06/01.0032/2020,129.0152,64.4924,1.583069,28.3546,2000,14.5,4.0
# From MPEC 2020-L06
C/2020 K4 (PANSTARRS),e,125.5675,264.1064,308.7919,23.88497,0.0084434,0.92657801,4.7899,09/22.0/2021,2000,g 16.5,4.0
# From MPEC 2021-R75
C/2020 K5 (PANSTARRS),h,06/05.5731/2021,67.1514,86.1644,249.5905,1.001509,1.535684,2000,11.0,4.0
# From MPEC 2021-R75
C/2020 K6 (Rankin),h,09/15.4573/2021,103.6433,291.5262,44.2960,1.003043,5.868343,2000,8.0,4.0
# From MPEC 2021-S45
C/2020 K7 (PANSTARRS),e,32.0428,286.0769,358.2196,102.6189,0.0009481,0.93775176,0.6581,09/22.0/2021,2000,g  8.0,4.0
# From MPEC 2021-P47
C/2020 K8 (Catalina-ATLAS),h,09/14.5263/2020,31.4216,181.5286,260.0303,1.000156,0.474207,2000,15.0,3.2
# From MPEC 2021-BE3
P/2020 K9 (Lemmon-PANSTARRS),e,23.2098,166.2400,196.9007,4.199177,0.1145402,0.32139770,25.4380,09/22.0/2021,2000,g 12.5,4.0
# From MPEC 2020-K19
P/2020 M1 (PANSTARRS),e,8.6768,142.8572,69.7978,5.209873,0.0828826,0.48316789,52.5246,09/22.0/2021,2000,g 14.5,4.0
# From MPEC 2021-N06
C/2020 M3 (ATLAS),e,23.4717,71.2385,328.4571,26.89160,0.0070677,0.95284378,2.3419,09/22.0/2021,2000,g 14.5,4.0
# From MPEC 2021-R75
A/2020 M4,e,160.1269,348.6230,104.6505,15696,0.0000005,0.99962076,0.0000,11/24.0158/2020,2000,g 14.5,2.0
# From MPEC 2021-S45
C/2020 M5 (ATLAS),h,08/19.8798/2021,93.2233,352.0942,126.3388,1.000051,3.004349,2000,9.0,4.0
# From MPEC 2021-N06
C/2020 N1 (PANSTARRS),h,03/12.2180/2021,29.7033,279.9787,186.7648,1.000522,1.320586,2000,12.5,4.0
# From MPEC 2021-P47
C/2020 N2 (ATLAS),e,161.0345,257.0870,331.2509,102.0363,0.0009563,0.98241543,0.0000,08/23.7329/2020,2000,g 16.0,3.2
# From MPEC 2020-SI8
P/2020 O1 (Lemmon-PANSTARRS),e,5.2259,175.9769,104.5308,2.644517,0.2291842,0.11945494,116.2740,09/22.0/2021,2000,g 15.5,4.0
# From MPEC 2021-S45
C/2020 O2 (Amaral),h,08/28.5403/2021,71.7479,256.7559,10.2995,1.002475,4.862163,2000,8.0,3.2
# From MPEC 2020-SI8
P/2020 O3 (PANSTARRS),e,8.4413,266.8376,81.5783,4.652344,0.0982192,0.10434740,23.0483,09/22.0/2021,2000,g 12.0,4.0
# From MPEC 2021-BE3
C/2020 P1 (NEOWISE),h,10/20.1844/2020,45.0706,53.5268,8.8900,1.000267,0.341963,2000,14.0,3.2
# From MPEC 2021-S45
C/2020 P3 (ATLAS),e,61.8852,19.4805,82.2503,9920,0.0000010,0.99931331,0.0000,04/20.8741/2021,2000,g  6.0,4.0
# From MPEC 2021-S45
C/2020 PV6 (PANSTARRS),e,128.2393,329.1439,71.3798,41.70471,0.0036595,0.94495487,359.9854,09/22.0/2021,2000,g 10.0,4.0
# From MPEC 2021-N06
C/2020 Q1 (Borisov),e,142.9151,52.4174,9.9019,58.87429,0.0021818,0.97766822,0.0000,08/14.6173/2020,2000,g 14.0,4.0
# From MPEC 2021-S45
C/2020 R2 (PANSTARRS),e,53.2258,195.0921,211.7188,413.3655,0.0001173,0.98864932,0.0000,02/24.3692/2022,2000,g  9.0,4.0
# From MPEC 2021-S45
C/2020 R4 (ATLAS),e,164.4633,323.2735,46.7185,97.92054,0.0010172,0.98949449,0.0000,03/01.9439/2021,2000,g 13.5,4.0
# From MPEC 2020-W26
P/2020 R5 (PANSTARRS),e,11.4531,272.9750,82.4031,4.981607,0.0886441,0.31468483,42.6658,09/22.0/2021,2000,g  9.5,6.0
# From MPEC 2020-W26
C/2020 R6 (Rankin),e,82.8206,12.1743,271.9548,534.5616,0.0000797,0.99415085,0.0000,09/10.0907/2019,2000,g 11.0,4.0
# From MPEC 2021-S45
C/2020 R7 (ATLAS),e,114.8924,268.2790,347.8254,11934,0.0000008,0.99975228,0.0000,09/16.2297/2022,2000,g  7.0,3.2
# From MPEC 2021-BE3
P/2020 S1 (PANSTARRS),e,13.7339,129.4592,254.9040,5.982869,0.0673503,0.50734980,16.6992,09/22.0/2021,2000,g 14.0,4.0
# From MPEC 2021-BE3
C/2020 S2 (PANSTARRS),e,22.3980,197.6777,202.2807,10.19124,0.0302945,0.82768947,8.3017,09/22.0/2021,2000,g 17.0,4.0
# From MPEC 2021-S45
C/2020 S3 (Erasmus),e,19.8825,222.9183,349.9202,186.9966,0.0003854,0.99787203,0.0000,12/12.6882/2020,2000,g 13.5,3.2
# From MPEC 2021-S45
C/2020 S4 (PANSTARRS),h,02/09.4546/2023,20.5742,117.7170,21.0293,1.000069,3.369126,2000,8.5,3.2
# From MPEC 2021-BE3
P/2020 S5 (PANSTARRS),e,12.3539,315.9993,53.0655,4.050292,0.1209135,0.33853771,49.5037,09/22.0/2021,2000,g 14.5,4.0
# From MPEC 2021-P47
P/2020 S6 (Leonard),e,15.4588,242.5621,176.6605,3.599799,0.1443068,0.47922904,43.6342,09/22.0/2021,2000,g 16.0,4.0
# From MPEC 2021-BE3
P/2020 S7 (PANSTARRS),e,16.0921,328.0178,40.4421,5.024273,0.0875174,0.41059398,26.9351,09/22.0/2021,2000,g 14.5,4.0
# From MPEC 2021-P47
C/2020 S8 (Lemmon),e,108.5218,24.0528,160.3357,276.8745,0.0002139,0.99146242,0.0000,04/10.9342/2021,2000,g 12.5,4.0
# From MPEC 2021-S45
C/2020 T2 (Palomar),e,27.8729,83.0482,150.3871,311.0241,0.0001797,0.99339374,0.0000,07/11.1561/2021,2000,g 11.0,3.2
# From MPEC 2021-N06
P/2020 T3 (PANSTARRS),e,7.2953,74.0141,357.0380,3.517425,0.1494056,0.59162106,36.5345,09/22.0/2021,2000,g 18.0,3.2
# From MPEC 2021-N06
C/2020 T4 (PANSTARRS),h,07/05.2553/2021,83.8142,50.6189,79.6074,1.000054,2.191848,2000,13.0,3.2
# From MPEC 2021-BE3
C/2020 T5 (Lemmon),e,66.5968,237.8614,90.3020,846.5023,0.0000400,0.99776821,0.0000,10/09.6260/2020,2000,g 16.0,4.0
# From MPEC 2021-N06
P/2020 U2 (PANSTARRS),e,6.4213,342.8995,84.6428,3.777800,0.1342288,0.51064730,36.2811,09/22.0/2021,2000,g 18.0,4.0
# From MPEC 2021-S45
C/2020 U3 (Rankin),e,30.1750,282.6798,124.2673,65.23004,0.0018708,0.96510527,0.4266,09/22.0/2021,2000,g 15.0,4.0
# From MPEC 2021-S45
C/2020 U4 (PANSTARRS),h,04/07.8203/2022,167.0365,120.0182,69.5210,1.001817,5.353845,2000,7.0,4.0
# From MPEC 2021-S45
C/2020 U5 (PANSTARRS),e,97.2737,107.3407,75.4116,7827,0.0000014,0.99952010,0.0000,04/27.8535/2022,2000,g  8.0,4.0
# From MPEC 2021-R75
C/2020 V2 (ZTF),h,05/08.4479/2023,131.6050,212.3529,162.3888,1.001332,2.228346,2000,4.9,4.0
# From MPEC 2021-N06
P/2020 V3 (PANSTARRS),e,23.0315,198.2702,249.3144,8.367227,0.0407223,0.25540418,9.1845,09/22.0/2021,2000,g  8.3,4.0
# From MPEC 2021-S45
P/2020 V4 (Rankin),e,14.2429,203.5028,256.9900,9.345188,0.0345002,0.44906465,2.2834,09/22.0/2021,2000,g  9.0,4.0
# From MPEC 2021-BE3
P/2020 W1 (Rankin),e,10.7918,124.2604,264.8498,7.200941,0.0510059,0.26563098,27.2797,09/22.0/2021,2000,g 10.0,4.0
# From MPEC 2021-BE3
C/2020 W5 (Lemmon),h,11/30.0862/2020,88.5835,75.5063,24.4792,1.000831,3.364211,2000,15.0,4.0
# From MPEC 2021-P47
P/2020 X1 (ATLAS),e,31.6969,56.0235,323.2603,4.526223,0.1023529,0.36544141,43.8746,09/22.0/2021,2000,g 13.0,4.0
# From MPEC 2021-N06
C/2020 X2 (ATLAS),e,18.1899,105.4567,347.3391,16.39929,0.0148411,0.76656246,4.6037,09/22.0/2021,2000,g 10.6,4.0
# From MPEC 2021-S45
C/2020 X4 (Leonard),e,80.5456,161.8920,140.0399,43.65822,0.0034167,0.88070770,1.0605,09/22.0/2021,2000,g  9.0,4.0
# From MPEC 2021-R75
C/2020 Y2 (ATLAS),e,101.2933,26.5090,266.0978,1224,0.0000230,0.99744027,0.0000,06/17.6566/2022,2000,g  6.5,4.0
# From MPEC 2021-R75
C/2020 Y3 (ATLAS),e,83.1003,191.4312,342.0361,149.5667,0.0005388,0.98663383,0.0000,12/03.4672/2020,2000,g 13.5,4.0
# From MPEC 2021-S45
C/2021 A1 (Leonard),h,01/03.3023/2022,132.6851,255.8934,225.0916,1.000063,0.615253,2000,8.5,4.0
# From MPEC 2021-S45
C/2021 A2 (NEOWISE),e,106.9778,125.2373,338.8377,252.9540,0.0002450,0.99441476,0.0000,01/22.6209/2021,2000,g 13.5,4.0
# From MPEC 2021-R75
C/2021 A4 (NEOWISE),e,111.5701,307.0856,204.6669,42.97155,0.0034989,0.97334018,0.0000,03/20.0317/2021,2000,g 16.0,4.0
# From MPEC 2021-BE3
P/2021 A5 (PANSTARRS),e,18.1882,328.7669,61.1297,3.046451,0.1853586,0.13973013,58.2716,09/22.0/2021,2000,g 15.0,4.0
# From MPEC 2021-P47
C/2021 A6 (PANSTARRS),e,75.6123,164.0790,351.7375,11715,0.0000008,0.99932318,0.0000,05/04.8474/2021,2000,g  7.0,4.0
# From MPEC 2021-N06
C/2021 A7 (NEOWISE),e,78.1498,154.5192,356.0593,6285,0.0000020,0.99968694,0.0000,07/15.3174/2021,2000,g 10.0,4.0
# From MPEC 2021-P47
C/2021 A9 (PANSTARRS),h,12/01.4393/2023,158.0288,314.8408,211.4727,1.004304,7.758429,2000,6.0,4.0
# From MPEC 2021-N06
C/2021 A10 (NEOWISE),e,151.5263,188.3491,82.2749,93.27502,0.0010941,0.98639854,0.0000,03/15.2684/2021,2000,g 19.0,4.0
# From MPEC 2021-O56
C/2021 B2 (PANSTARRS),e,38.0933,120.5555,334.9663,344.7961,0.0001539,0.99271147,0.0000,05/04.2591/2021,2000,g 14.0,4.0
# From MPEC 2021-N06
C/2021 B3 (NEOWISE),e,119.4863,67.2873,293.5573,34.93706,0.0047728,0.93817076,0.9312,09/22.0/2021,2000,g 13.5,4.0
# From MPEC 2021-P47
C/2021 C1 (Rankin),e,143.0421,186.8937,336.3106,30771,0.0000002,0.99988687,0.0000,12/07.1386/2020,2000,g 11.5,4.0
# From MPEC 2021-P47
P/2021 C2 (PANSTARRS),e,21.9271,66.4886,78.7932,9.537110,0.0334641,0.48726121,7.0180,09/22.0/2021,2000,g 12.0,4.0
# From MPEC 2021-N06
C/2021 C3 (Catalina),e,122.1639,181.9228,357.1467,63.29848,0.0019571,0.96403738,0.4336,09/22.0/2021,2000,g 14.0,4.0
# From MPEC 2021-P47
C/2021 C4 (ATLAS),e,132.8456,194.2754,320.2359,8277,0.0000013,0.99945582,0.0000,01/17.1010/2021,2000,g  9.0,4.0
# From MPEC 2021-N06
C/2021 C5 (PANSTARRS),e,50.7877,323.6910,270.9176,5964,0.0000021,0.99945645,0.0000,02/11.0061/2023,2000,g  9.0,4.0
# From MPEC 2021-N06
C/2021 C6 (Lemmon),h,11/13.3182/2021,164.6261,332.1554,203.5611,1.002044,3.271337,2000,12.0,4.0
# From MPEC 2021-N06
C/2021 D1 (SWAN),e,31.4604,311.2713,72.2262,97.12608,0.0010297,0.99071519,0.0000,02/27.6166/2021,2000,g 13.0,4.0
# From MPEC 2021-S45
C/2021 D2 (ZTF),h,02/03.9865/2022,83.8313,305.6764,125.0306,1.001241,2.946289,2000,9.0,4.0
# From MPEC 2021-N06
A/2021 E2,e,167.4879,190.8142,342.4626,235.6664,0.0002724,0.99029067,0.0000,12/10.4743/2020,2000,g 15.0,2.0
# From MPEC 2021-S45
